{
  "type": "FeatureCollection",
  "features": [
    {
      "type": "Feature",
      "properties": {
        "norad_id": 33805,
        "name": "COSMOS 2251 DEB",
        "group": "cosmos-2251-debris",
        "lat": -39.17018204724452,
        "lon": 144.5873805858151,
        "alt_km": 699.2338847499823,
        "timestamp": "2025-12-12T20:43:07.428291+00:00",
        "meta_object_name": "COSMOS 2251 DEB",
        "meta_object_id": "1993-036AW",
        "meta_epoch": "2025-12-12T06:32:16.757088",
        "meta_mean_motion": 14.57854121,
        "meta_eccentricity": 0.00602192,
        "meta_inclination": 74.0307,
        "meta_ra_of_asc_node": 312.2197,
        "meta_arg_of_pericenter": 141.3539,
        "meta_mean_anomaly": 219.1959,
        "meta_ephemeris_type": 0,
        "meta_classification_type": "U",
        "meta_norad_cat_id": 33805,
        "meta_element_set_no": 999,
        "meta_rev_at_epoch": 89220,
        "meta_bstar": 0.00037905729,
        "meta_mean_motion_dot": 1.75e-05,
        "meta_mean_motion_ddot": 0,
        "tle_line1": "1 33805U 93036AW  25346.27241617  .00001750  00000+0  37906-3 0  9990",
        "tle_line2": "2 33805  74.0307 312.2197 0060219 141.3539 219.1959 14.57854121892206"
      },
      "geometry": {
        "type": "Point",
        "coordinates": [
          144.5873805858151,
          -39.17018204724452
        ]
      }
    },
    {
      "type": "Feature",
      "properties": {
        "norad_id": 33811,
        "name": "COSMOS 2251 DEB",
        "group": "cosmos-2251-debris",
        "lat": 64.57418998012739,
        "lon": 84.80855615439343,
        "alt_km": 542.818705852219,
        "timestamp": "2025-12-12T20:43:07.428302+00:00",
        "meta_object_name": "COSMOS 2251 DEB",
        "meta_object_id": "1993-036BC",
        "meta_epoch": "2025-12-12T06:23:05.582976",
        "meta_mean_motion": 15.05249405,
        "meta_eccentricity": 0.00306596,
        "meta_inclination": 73.8382,
        "meta_ra_of_asc_node": 303.6387,
        "meta_arg_of_pericenter": 24.2026,
        "meta_mean_anomaly": 90.231,
        "meta_ephemeris_type": 0,
        "meta_classification_type": "U",
        "meta_norad_cat_id": 33811,
        "meta_element_set_no": 999,
        "meta_rev_at_epoch": 90011,
        "meta_bstar": 0.0017114196,
        "meta_mean_motion_dot": 0.00024755,
        "meta_mean_motion_ddot": 0,
        "tle_line1": "1 33811U 93036BC  25346.26603684  .00024755  00000+0  17114-2 0  9990",
        "tle_line2": "2 33811  73.8382 303.6387 0030659  24.2026  90.2310 15.05249405900119"
      },
      "geometry": {
        "type": "Point",
        "coordinates": [
          84.80855615439343,
          64.57418998012739
        ]
      }
    },
    {
      "type": "Feature",
      "properties": {
        "norad_id": 33815,
        "name": "COSMOS 2251 DEB",
        "group": "cosmos-2251-debris",
        "lat": -1.819652683068867,
        "lon": -3.1473609914624556,
        "alt_km": 514.055475106984,
        "timestamp": "2025-12-12T20:43:07.428312+00:00",
        "meta_object_name": "COSMOS 2251 DEB",
        "meta_object_id": "1993-036BG",
        "meta_epoch": "2025-12-10T00:34:36.803712",
        "meta_mean_motion": 15.1696459,
        "meta_eccentricity": 0.00027751,
        "meta_inclination": 73.9523,
        "meta_ra_of_asc_node": 182.2836,
        "meta_arg_of_pericenter": 231.9732,
        "meta_mean_anomaly": 286.9539,
        "meta_ephemeris_type": 0,
        "meta_classification_type": "U",
        "meta_norad_cat_id": 33815,
        "meta_element_set_no": 999,
        "meta_rev_at_epoch": 88329,
        "meta_bstar": 0.0073023687,
        "meta_mean_motion_dot": 0.00147157,
        "meta_mean_motion_ddot": 0,
        "tle_line1": "1 33815U 93036BG  25344.02403708  .00147157  00000+0  73024-2 0  9995",
        "tle_line2": "2 33815  73.9523 182.2836 0002775 231.9732 286.9539 15.16964590883297"
      },
      "geometry": {
        "type": "Point",
        "coordinates": [
          -3.1473609914624556,
          -1.819652683068867
        ]
      }
    },
    {
      "type": "Feature",
      "properties": {
        "norad_id": 33816,
        "name": "COSMOS 2251 DEB",
        "group": "cosmos-2251-debris",
        "lat": -17.21825033236148,
        "lon": 100.05040548044929,
        "alt_km": 1099.1096244778137,
        "timestamp": "2025-12-12T20:43:07.428322+00:00",
        "meta_object_name": "COSMOS 2251 DEB",
        "meta_object_id": "1993-036BH",
        "meta_epoch": "2025-12-11T11:47:39.911424",
        "meta_mean_motion": 13.81781196,
        "meta_eccentricity": 0.02647437,
        "meta_inclination": 73.8948,
        "meta_ra_of_asc_node": 107.5116,
        "meta_arg_of_pericenter": 120.6874,
        "meta_mean_anomaly": 242.0628,
        "meta_ephemeris_type": 0,
        "meta_classification_type": "U",
        "meta_norad_cat_id": 33816,
        "meta_element_set_no": 999,
        "meta_rev_at_epoch": 84656,
        "meta_bstar": 0.00078196,
        "meta_mean_motion_dot": 1.071e-05,
        "meta_mean_motion_ddot": 0,
        "tle_line1": "1 33816U 93036BH  25345.49143416  .00001071  00000+0  78196-3 0  9995",
        "tle_line2": "2 33816  73.8948 107.5116 0264743 120.6874 242.0628 13.81781196846565"
      },
      "geometry": {
        "type": "Point",
        "coordinates": [
          100.05040548044929,
          -17.21825033236148
        ]
      }
    },
    {
      "type": "Feature",
      "properties": {
        "norad_id": 33818,
        "name": "COSMOS 2251 DEB",
        "group": "cosmos-2251-debris",
        "lat": 63.46910152336685,
        "lon": -159.13468801300226,
        "alt_km": 520.7692782751674,
        "timestamp": "2025-12-12T20:43:07.428333+00:00",
        "meta_object_name": "COSMOS 2251 DEB",
        "meta_object_id": "1993-036BK",
        "meta_epoch": "2025-12-12T05:04:00.278112",
        "meta_mean_motion": 15.12428593,
        "meta_eccentricity": 0.00271147,
        "meta_inclination": 74.0766,
        "meta_ra_of_asc_node": 167.3336,
        "meta_arg_of_pericenter": 156.3758,
        "meta_mean_anomaly": 323.0447,
        "meta_ephemeris_type": 0,
        "meta_classification_type": "U",
        "meta_norad_cat_id": 33818,
        "meta_element_set_no": 999,
        "meta_rev_at_epoch": 89854,
        "meta_bstar": 0.0033810245,
        "meta_mean_motion_dot": 0.00059733,
        "meta_mean_motion_ddot": 0,
        "tle_line1": "1 33818U 93036BK  25346.21111433  .00059733  00000+0  33810-2 0  9993",
        "tle_line2": "2 33818  74.0766 167.3336 0027114 156.3758 323.0447 15.12428593898541"
      },
      "geometry": {
        "type": "Point",
        "coordinates": [
          -159.13468801300226,
          63.46910152336685
        ]
      }
    },
    {
      "type": "Feature",
      "properties": {
        "norad_id": 33819,
        "name": "COSMOS 2251 DEB",
        "group": "cosmos-2251-debris",
        "lat": 20.684475770708264,
        "lon": 23.476932957212036,
        "alt_km": 780.4695714715908,
        "timestamp": "2025-12-12T20:43:07.428343+00:00",
        "meta_object_name": "COSMOS 2251 DEB",
        "meta_object_id": "1993-036BL",
        "meta_epoch": "2025-12-12T02:15:21.312288",
        "meta_mean_motion": 14.322192,
        "meta_eccentricity": 0.00890672,
        "meta_inclination": 74.1788,
        "meta_ra_of_asc_node": 211.0137,
        "meta_arg_of_pericenter": 72.5334,
        "meta_mean_anomaly": 79.9863,
        "meta_ephemeris_type": 0,
        "meta_classification_type": "U",
        "meta_norad_cat_id": 33819,
        "meta_element_set_no": 999,
        "meta_rev_at_epoch": 87486,
        "meta_bstar": 0.000974397,
        "meta_mean_motion_dot": 2.72e-05,
        "meta_mean_motion_ddot": 0,
        "tle_line1": "1 33819U 93036BL  25346.09399667  .00002720  00000+0  97440-3 0  9991",
        "tle_line2": "2 33819  74.1788 211.0137 0089067  72.5334  79.9863 14.32219200874869"
      },
      "geometry": {
        "type": "Point",
        "coordinates": [
          23.476932957212036,
          20.684475770708264
        ]
      }
    },
    {
      "type": "Feature",
      "properties": {
        "norad_id": 33821,
        "name": "COSMOS 2251 DEB",
        "group": "cosmos-2251-debris",
        "lat": -53.591307672714024,
        "lon": -14.575180557388359,
        "alt_km": 478.8030781566604,
        "timestamp": "2025-12-12T20:43:07.428354+00:00",
        "meta_object_name": "COSMOS 2251 DEB",
        "meta_object_id": "1993-036BN",
        "meta_epoch": "2025-12-12T03:56:41.055648",
        "meta_mean_motion": 15.25258016,
        "meta_eccentricity": 0.00520172,
        "meta_inclination": 74.0307,
        "meta_ra_of_asc_node": 144.0532,
        "meta_arg_of_pericenter": 177.8568,
        "meta_mean_anomaly": 182.2866,
        "meta_ephemeris_type": 0,
        "meta_classification_type": "U",
        "meta_norad_cat_id": 33821,
        "meta_element_set_no": 999,
        "meta_rev_at_epoch": 74992,
        "meta_bstar": 0.0017435336,
        "meta_mean_motion_dot": 0.00045827,
        "meta_mean_motion_ddot": 0,
        "tle_line1": "1 33821U 93036BN  25346.16436407  .00045827  00000+0  17435-2 0  9996",
        "tle_line2": "2 33821  74.0307 144.0532 0052017 177.8568 182.2866 15.25258016749925"
      },
      "geometry": {
        "type": "Point",
        "coordinates": [
          -14.575180557388359,
          -53.591307672714024
        ]
      }
    }
  ]
}